SL-14 R/B               
1 20511U 90018B   26194.20440757  .00000212  00000+0  23597-4 0  9992
2 20511  82.5219 105.7911 0017174  43.0004 317.2549 14.82233335941170
HST                     
1 20580U 90037B   26194.47969022  .00003777  00000+0  11487-3 0  9992
2 20580  28.4725 260.8360 0002205  88.3061 271.7788 15.31050347792608
SL-16 R/B               
1 20625U 90046B   26194.03324273  .00000166  00000+0  11034-3 0  9994
2 20625  70.9983  34.6648 0012441 118.1378 242.1003 14.15023667866125
COSMOS 2084             
1 20663U 90055A   26194.48532433  .00000907  00000+0  75331-4 0  9998
2 20663  62.7885 266.3244 0007862 316.5045  43.5434 15.06220126955264
SL-6 R/B(2)             
1 20666U 90055D   26194.37756421  .00001038  00000+0  87842-4 0  9990
2 20666  62.7802 186.2468 0044875   8.7952 351.3923 15.04083501957094
SL-8 R/B                
1 20775U 90078B   26194.33306271  .00012107  00000+0  34301-3 0  9996
2 20775  82.9030 137.9972 0343818 309.8776  47.2666 14.93534984828021
SL-8 R/B                
1 21088U 91006B   26194.08714744  .00000079  00000+0  63857-4 0  9990
2 21088  82.9411  76.7648 0023537  46.1489 114.9816 13.77508876781330
OKEAN-3                 
1 21397U 91039A   26194.46080779  .00001696  00000+0  11612-3 0  9992
2 21397  82.5140 214.9004 0012264 261.2868  98.6970 15.05428594883957
COSMOS 2151             
1 21422U 91042A   26194.46787867  .00000635  00000+0  48163-4 0  9991
2 21422  82.4980 322.3177 0012125   1.3985 358.7271 15.00510446882058
SL-14 R/B               
1 21423U 91042B   26194.14895806  .00000185  00000+0  20366-4 0  9995
2 21423  82.4934 102.5505 0016798 183.6324 176.4771 14.81917402871657
ERS-1                   
1 21574U 91050A   26194.09104300  .00000153  00000+0  63482-4 0  9998
2 21574  98.7795 215.4215 0031779 188.0207 172.0476 14.39532110833773
ARIANE 40 R/B           
1 21610U 91050F   26194.12172711  .00000131  00000+0  51584-4 0  9990
2 21610  98.1863 241.5266 0004231  65.9959 294.1675 14.42971235837084
INTERCOSMOS 25          
1 21819U 91086A   26194.44225703  .00000382  00000+0  73209-4 0  9991
2 21819  82.6011 233.9218 1484493 205.7085 146.2354 12.12239459511920
SL-8 R/B                
1 21876U 92008B   26194.45971118  .00000109  00000+0  95868-4 0  9990
2 21876  82.9271 174.2535 0035571 141.3392 331.8051 13.75983474726711
SL-8 R/B                
1 21938U 92020B   26194.11353977  .00000035  00000+0  20994-4 0  9999
2 21938  82.9286  60.5973 0028027 309.6543 204.7125 13.75550280718372
USA 81                  
1 21949U 92023A   26193.98188943  .00000114  00000+0  34784-4 0  9997
2 21949  85.0052  59.1167 0002088  65.7055 294.4355 14.32404579112726
COSMOS 2219             
1 22219U 92076A   26194.15116696 -.00000190  00000+0 -74807-4 0  9998
2 22219  71.0614 115.7964 0018137   0.6237 359.4905 14.14109328736114
SL-16 R/B               
1 22220U 92076B   26194.50993318  .00000212  00000+0  12952-3 0  9998
2 22220  71.0005 283.3316 0015024 264.2571 184.5006 14.16876746739652
COSMOS 2221             
1 22236U 92080A   26194.41555853  .00000865  00000+0  73437-4 0  9998
2 22236  82.5045 158.6352 0015599 125.6299 234.6379 14.96601001799595
SL-16 R/B               
1 22285U 92093B   26194.17811171 -.00000199  00000+0 -77414-4 0  9998
2 22285  71.0220 100.8298 0002364 139.8557 220.2741 14.15466459730917
COSMOS 2228             
1 22286U 92094A   26194.47914780  .00000931  00000+0  77141-4 0  9992
2 22286  82.5188 116.8593 0016206 235.3883 124.5812 14.97672385794885
SL-16 R/B               
1 22566U 93016B   26194.44364161  .00000102  00000+0  76885-4 0  9991
2 22566  71.0084 311.0595 0008915 141.1649 219.0116 14.15311930719966
COSMOS 2242             
1 22626U 93024A   26194.38382890  .00000912  00000+0  76929-4 0  9997
2 22626  82.5198 146.4796 0014561 239.3618 120.6169 14.96981670799190
SL-16 R/B               
1 22803U 93059B   26194.25170413 -.00000232  00000+0 -90932-4 0  9991
2 22803  70.9903 106.3392 0016548  11.4267 348.7229 14.17249915697329
ARIANE 40 R/B           
1 22830U 93061H   26194.18138914  .00000079  00000+0  44652-4 0  9991
2 22830  98.4808 260.4969 0009477 272.3235  87.6864 14.32918102712078
COSMOS 2278             
1 23087U 94023A   26194.48506108 -.00000066  00000+0 -99186-5 0  9993
2 23087  71.0525 271.9044 0009741 208.1977 151.8619 14.14393262662598
SL-16 R/B               
1 23088U 94023B   26194.33369793  .00000022  00000+0  36040-4 0  9994
2 23088  70.9982 167.0209 0001438 135.3701 224.7538 14.15024016663863
SL-16 R/B               
1 23343U 94074B   26194.04392360  .00000208  00000+0  34439-4 0  9994
2 23343  97.6986 219.6865 0006985 160.7187 227.7465 14.79523286705784
SL-16 R/B               
1 23405U 94077B   26194.12495675 -.00000191  00000+0 -73168-4 0  9993
2 23405  70.9823  88.5951 0004090 304.9983  55.0756 14.15574600633980
ARIANE 40+ R/B          
1 23561U 95021B   26194.17674780  .00000122  00000+0  52738-4 0  9999
2 23561  98.4401 263.8749 0007845 121.6463 264.6723 14.39846937637304
